GLOBALSTAR M094 [+]     
1 39074U 13005C   24106.82061134 -.00000090  00000+0  78178-4 0  9994
2 39074  51.9980  43.3193 0000764  62.2038 297.8906 12.62264272518401
GLOBALSTAR M096 [+]     
1 39075U 13005D   24106.35860392 -.00000104  00000+0 -38719-5 0  9991
2 39075  52.0064  92.9063 0000653  49.7143 310.3780 12.62264279517268
GLOBALSTAR M078 [+]     
1 39076U 13005E   24106.49116563  .00000003  00000+0  59842-3 0  9995
2 39076  51.9859 177.6013 0000646 324.6801  35.4023 12.62262002515909
GLOBALSTAR M095 [+]     
1 39077U 13005F   24106.35839017 -.00000070  00000+0  18753-3 0  9998
2 39077  51.9789 175.4097 0000527  27.8751 332.2143 12.62265246515740
GLOBALSTAR M087 [+]     
1 52888U 22064A   24106.26683008 -.00000103  00000+0  48059-4 0  9995
2 52888  51.9762  67.7784 0009077 202.5885 157.4617 13.37569666 89106
